{"type": "FeatureCollection", "features": [{"type": "Feature", "properties": {"month": "2024-09", "precision_scope": "strict_address_or_parcel", "event_count": 53, "movement_from_previous_month_km": null}, "geometry": {"type": "Point", "coordinates": [132.76682553637738, 33.844550235547175]}}, {"type": "Feature", "properties": {"month": "2024-10", "precision_scope": "strict_address_or_parcel", "event_count": 11, "movement_from_previous_month_km": 1.2052526156654846}, "geometry": {"type": "Point", "coordinates": [132.75519977509092, 33.849475343818185]}}, {"type": "Feature", "properties": {"month": "2024-11", "precision_scope": "strict_address_or_parcel", "event_count": 40, "movement_from_previous_month_km": 0.38005773192469544}, "geometry": {"type": "Point", "coordinates": [132.754593000025, 33.846094761625]}}, {"type": "Feature", "properties": {"month": "2024-12", "precision_scope": "strict_address_or_parcel", "event_count": 38, "movement_from_previous_month_km": 1.1118640096170984}, "geometry": {"type": "Point", "coordinates": [132.76605997873682, 33.84304854842106]}}, {"type": "Feature", "properties": {"month": "2025-01", "precision_scope": "strict_address_or_parcel", "event_count": 9, "movement_from_previous_month_km": 0.34939250444766773}, "geometry": {"type": "Point", "coordinates": [132.76266514933332, 33.84443525955555]}}, {"type": "Feature", "properties": {"month": "2025-02", "precision_scope": "strict_address_or_parcel", "event_count": 34, "movement_from_previous_month_km": 0.3306425833201139}, "geometry": {"type": "Point", "coordinates": [132.7628269759412, 33.841464762735285]}}, {"type": "Feature", "properties": {"month": "2025-03", "precision_scope": "strict_address_or_parcel", "event_count": 27, "movement_from_previous_month_km": 0.2964777725578926}, "geometry": {"type": "Point", "coordinates": [132.7658785225185, 33.842292500851855]}}, {"type": "Feature", "properties": {"month": "2025-04", "precision_scope": "strict_address_or_parcel", "event_count": 15, "movement_from_previous_month_km": 0.655931873867297}, "geometry": {"type": "Point", "coordinates": [132.76403522206664, 33.836595725]}}, {"type": "Feature", "properties": {"month": "2025-05", "precision_scope": "strict_address_or_parcel", "event_count": 40, "movement_from_previous_month_km": 1.5597719978953053}, "geometry": {"type": "Point", "coordinates": [132.75086641069998, 33.845378107875]}}, {"type": "Feature", "properties": {"month": "2025-06", "precision_scope": "strict_address_or_parcel", "event_count": 33, "movement_from_previous_month_km": 2.035103114102667}, "geometry": {"type": "Point", "coordinates": [132.76549324933333, 33.831690022848484]}}, {"type": "Feature", "properties": {"month": "2025-07", "precision_scope": "strict_address_or_parcel", "event_count": 15, "movement_from_previous_month_km": 2.4312894527447613}, "geometry": {"type": "Point", "coordinates": [132.74367114006665, 33.8439185314]}}, {"type": "Feature", "properties": {"month": "2025-08", "precision_scope": "strict_address_or_parcel", "event_count": 35, "movement_from_previous_month_km": 1.2659486368489787}, "geometry": {"type": "Point", "coordinates": [132.75666459702856, 33.84754597485715]}}, {"type": "Feature", "properties": {"month": "2025-09", "precision_scope": "strict_address_or_parcel", "event_count": 23, "movement_from_previous_month_km": 0.5605509315497677}, "geometry": {"type": "Point", "coordinates": [132.76232025752174, 33.84937638491305]}}, {"type": "Feature", "properties": {"month": "2025-10", "precision_scope": "strict_address_or_parcel", "event_count": 11, "movement_from_previous_month_km": 1.0649520623758817}, "geometry": {"type": "Point", "coordinates": [132.76123766863637, 33.85891142463637]}}, {"type": "Feature", "properties": {"month": "2025-11", "precision_scope": "strict_address_or_parcel", "event_count": 24, "movement_from_previous_month_km": 1.4731362306454332}, "geometry": {"type": "Point", "coordinates": [132.76537235170835, 33.84611593508333]}}, {"type": "Feature", "properties": {"month": "2025-12", "precision_scope": "strict_address_or_parcel", "event_count": 26, "movement_from_previous_month_km": 1.6742593596142052}, "geometry": {"type": "Point", "coordinates": [132.77062262219232, 33.83170432934615]}}, {"type": "Feature", "properties": {"month": "2026-01", "precision_scope": "strict_address_or_parcel", "event_count": 5, "movement_from_previous_month_km": 2.8141587287348444}, "geometry": {"type": "Point", "coordinates": [132.7402659382, 33.8338607346]}}, {"type": "Feature", "properties": {"month": "2026-02", "precision_scope": "strict_address_or_parcel", "event_count": 48, "movement_from_previous_month_km": 2.7053462341133336}, "geometry": {"type": "Point", "coordinates": [132.7671171712917, 33.843582786187504]}}, {"type": "Feature", "properties": {"month": "2026-03", "precision_scope": "strict_address_or_parcel", "event_count": 44, "movement_from_previous_month_km": 1.1043875202816458}, "geometry": {"type": "Point", "coordinates": [132.75642961086362, 33.84803846488636]}}, {"type": "Feature", "properties": {"month": "2026-04", "precision_scope": "strict_address_or_parcel", "event_count": 14, "movement_from_previous_month_km": 0.8491354562014632}, "geometry": {"type": "Point", "coordinates": [132.76287988814286, 33.8425964695]}}, {"type": "Feature", "properties": {"month": "2026-05", "precision_scope": "strict_address_or_parcel", "event_count": 7, "movement_from_previous_month_km": 0.9056792097205544}, "geometry": {"type": "Point", "coordinates": [132.769120835, 33.83631401814286]}}, {"type": "Feature", "properties": {"month": "2026-06", "precision_scope": "strict_address_or_parcel", "event_count": 12, "movement_from_previous_month_km": 0.6458880419113266}, "geometry": {"type": "Point", "coordinates": [132.76387736108333, 33.840157356]}}, {"type": "Feature", "properties": {"month": "2026-07", "precision_scope": "strict_address_or_parcel", "event_count": 22, "movement_from_previous_month_km": 0.2451585359440314}, "geometry": {"type": "Point", "coordinates": [132.76126909527275, 33.8405668139091]}}, {"type": "Feature", "properties": {"month": "2024-09", "precision_scope": "town_or_better", "event_count": 131, "movement_from_previous_month_km": null}, "geometry": {"type": "Point", "coordinates": [132.76568314067174, 33.84324498842748]}}, {"type": "Feature", "properties": {"month": "2024-10", "precision_scope": "town_or_better", "event_count": 55, "movement_from_previous_month_km": 1.0705849767276518}, "geometry": {"type": "Point", "coordinates": [132.76723433683637, 33.852786396036365]}}, {"type": "Feature", "properties": {"month": "2024-11", "precision_scope": "town_or_better", "event_count": 121, "movement_from_previous_month_km": 1.0437090610166295}, "geometry": {"type": "Point", "coordinates": [132.76101394215704, 33.84494969805785]}}, {"type": "Feature", "properties": {"month": "2024-12", "precision_scope": "town_or_better", "event_count": 116, "movement_from_previous_month_km": 0.6916854368682439}, "geometry": {"type": "Point", "coordinates": [132.76805182924141, 33.84282230034483]}}, {"type": "Feature", "properties": {"month": "2025-01", "precision_scope": "town_or_better", "event_count": 49, "movement_from_previous_month_km": 0.33076553390501495}, "geometry": {"type": "Point", "coordinates": [132.7648188437551, 33.84154245583674]}}, {"type": "Feature", "properties": {"month": "2025-02", "precision_scope": "town_or_better", "event_count": 119, "movement_from_previous_month_km": 0.09734537226578363}, "geometry": {"type": "Point", "coordinates": [132.76509183346218, 33.84069688178992]}}, {"type": "Feature", "properties": {"month": "2025-03", "precision_scope": "town_or_better", "event_count": 103, "movement_from_previous_month_km": 1.1150849390570023}, "geometry": {"type": "Point", "coordinates": [132.76935275833011, 33.85007988857281]}}, {"type": "Feature", "properties": {"month": "2025-04", "precision_scope": "town_or_better", "event_count": 71, "movement_from_previous_month_km": 0.9066644264771524}, "geometry": {"type": "Point", "coordinates": [132.76596558212677, 33.8424267306338]}}, {"type": "Feature", "properties": {"month": "2025-05", "precision_scope": "town_or_better", "event_count": 163, "movement_from_previous_month_km": 0.5459084891086261}, "geometry": {"type": "Point", "coordinates": [132.76313258544783, 33.84673561542945]}}, {"type": "Feature", "properties": {"month": "2025-06", "precision_scope": "town_or_better", "event_count": 110, "movement_from_previous_month_km": 1.4872474153208104}, "geometry": {"type": "Point", "coordinates": [132.7710511929818, 33.835089343218186]}}, {"type": "Feature", "properties": {"month": "2025-07", "precision_scope": "town_or_better", "event_count": 64, "movement_from_previous_month_km": 0.9117157501320954}, "geometry": {"type": "Point", "coordinates": [132.76561595470312, 33.84193378079688]}}, {"type": "Feature", "properties": {"month": "2025-08", "precision_scope": "town_or_better", "event_count": 116, "movement_from_previous_month_km": 0.6306409752701309}, "geometry": {"type": "Point", "coordinates": [132.76597031806895, 33.84759762172414]}}, {"type": "Feature", "properties": {"month": "2025-09", "precision_scope": "town_or_better", "event_count": 92, "movement_from_previous_month_km": 0.7060870783135638}, "geometry": {"type": "Point", "coordinates": [132.76795546655435, 33.84146542231522]}}, {"type": "Feature", "properties": {"month": "2025-10", "precision_scope": "town_or_better", "event_count": 53, "movement_from_previous_month_km": 0.5150747751784392}, "geometry": {"type": "Point", "coordinates": [132.76657017650942, 33.84595242775471]}}, {"type": "Feature", "properties": {"month": "2025-11", "precision_scope": "town_or_better", "event_count": 86, "movement_from_previous_month_km": 0.265241481672721}, "geometry": {"type": "Point", "coordinates": [132.7642894004767, 33.84450271444186]}}, {"type": "Feature", "properties": {"month": "2025-12", "precision_scope": "town_or_better", "event_count": 127, "movement_from_previous_month_km": 0.741467091641674}, "geometry": {"type": "Point", "coordinates": [132.76975658407088, 33.83961962648031]}}, {"type": "Feature", "properties": {"month": "2026-01", "precision_scope": "town_or_better", "event_count": 40, "movement_from_previous_month_km": 0.4896468126916279}, "geometry": {"type": "Point", "coordinates": [132.77057804227502, 33.835269316825006]}}, {"type": "Feature", "properties": {"month": "2026-02", "precision_scope": "town_or_better", "event_count": 155, "movement_from_previous_month_km": 1.0302411369652151}, "geometry": {"type": "Point", "coordinates": [132.7687453304645, 33.84440857894839]}}, {"type": "Feature", "properties": {"month": "2026-03", "precision_scope": "town_or_better", "event_count": 148, "movement_from_previous_month_km": 0.5939203106636738}, "geometry": {"type": "Point", "coordinates": [132.76240509377027, 33.843514773344594]}}, {"type": "Feature", "properties": {"month": "2026-04", "precision_scope": "town_or_better", "event_count": 52, "movement_from_previous_month_km": 0.8133028057435249}, "geometry": {"type": "Point", "coordinates": [132.77108195065387, 33.84226549178846]}}, {"type": "Feature", "properties": {"month": "2026-05", "precision_scope": "town_or_better", "event_count": 67, "movement_from_previous_month_km": 1.0653291698864913}, "geometry": {"type": "Point", "coordinates": [132.76280828126863, 33.84894164368656]}}, {"type": "Feature", "properties": {"month": "2026-06", "precision_scope": "town_or_better", "event_count": 56, "movement_from_previous_month_km": 0.8485790784347895}, "geometry": {"type": "Point", "coordinates": [132.76925123808928, 33.84350062985715]}}, {"type": "Feature", "properties": {"month": "2026-07", "precision_scope": "town_or_better", "event_count": 71, "movement_from_previous_month_km": 0.36389780444689623}, "geometry": {"type": "Point", "coordinates": [132.76540563515496, 33.84278777332394]}}]}